satname,norad_id,inclination_deg,eccentricity,mean_motion_rev_per_day,perigee_km,apogee_km,l1,l2
STARLINK-1153,45080,53.0572,0.0001558,15.06375254,546.2084207806402,548.3663830242722,1 45080U 20006AN  25318.67047926 -.00006226  00000+0 -39970-3 0  9993,2 45080  53.0572  62.9595 0001558  98.9643 261.1523 15.06375254319400
STARLINK-1151,45081,53.0539,0.0001466,15.06374936,546.273109193311,548.3036439137168,1 45081U 20006AP  25318.58941205  .00014273  00000+0  97580-3 0  9997,2 45081  53.0539  63.3997 0001466 103.4783 256.6370 15.06374936319393
STARLINK-1190,45083,53.0362,0.0006368,16.02354686,263.66754940936244,272.13194180857136,1 45083U 20006AR  25318.43332469  .00643108  20312-3  10718-2 0  9993,2 45083  53.0362   5.7981 0006368 352.3638   7.7294 16.02354686320188
STARLINK-1185,45087,53.056,0.0001235,15.06406833,546.3353378960119,548.0458938171287,1 45087U 20006AV  25318.49907823  .00003151  00000+0  23031-3 0  9994,2 45087  53.0560  43.7269 0001235  98.4716 261.6413 15.06406833319666
STARLINK-1183,45088,53.0549,0.0001508,15.06382058,546.2221972749003,548.3108989850152,1 45088U 20006AW  25318.65388291 -.00001615  00000+0 -89598-4 0  9991,2 45088  53.0549  43.0332 0001508  78.0369 282.0789 15.06382058319686
STARLINK-1142,45093,53.0323,0.0007867,15.67812766,359.85642925365937,370.46633492804085,1 45093U 20006BB  25318.91670139  .00367011  00000+0  31336-2 0  9999,2 45093  53.0323 329.1539 0007867  51.9565  45.8650 15.67812766  5833
STARLINK-1152,45096,53.0454,0.0004071,15.2543646,486.67933594551596,492.2709457505953,1 45096U 20006BE  25318.61850875  .00010955  00000+0  44035-3 0  9999,2 45096  53.0454  23.5756 0004071 238.1958 121.8643 15.25436460319951
STARLINK-1184,45098,53.0545,0.0001267,15.06391562,546.3599743747727,548.1148642526277,1 45098U 20006BG  25318.53593472  .00011135  00000+0  76541-3 0  9997,2 45098  53.0545  43.5622 0001267 100.8531 259.2601 15.06391562319664
STARLINK-1193,45100,53.056,0.0001096,15.06455434,546.2826663403193,547.8006655038898,1 45100U 20006BJ  25318.66492874  .00022353  00000+0  15125-2 0  9993,2 45100  53.0560  42.9824 0001096  94.1969 265.9146 15.06455434319681
STARLINK-1143,45179,53.0521,0.0009108,15.42443838,432.6902622484922,445.1081754247243,1 45179U 20012B   25318.84498198  .00027014  00000+0  62132-3 0  9991,2 45179  53.0521 162.3027 0009108 103.8037 256.3982 15.42443838318093
STARLINK-1202,45183,53.0538,0.0001323,15.06373278,546.3772237806716,548.2096926799186,1 45183U 20012F   25318.86032147  .00010485  00000+0  72226-3 0  9995,2 45183  53.0538 202.1092 0001323  94.1324 265.9816 15.06373278317533
STARLINK-1216,45185,53.052,0.0001035,15.06360422,546.616075333206,548.0496475945292,1 45185U 20012H   25318.85293610 -.00000828  00000+0 -36756-4 0  9991,2 45185  53.0520 202.1405 0001035  87.0270 273.0837 15.06360422317478
STARLINK-1225,45187,53.0525,0.0001145,15.0638046,546.4784866043046,548.0644051384097,1 45187U 20012K   25318.87138074  .00012917  00000+0  88491-3 0  9999,2 45187  53.0525 202.0599 0001145  86.6810 273.4310 15.06380460317525
STARLINK-1230,45189,53.0563,0.0001465,15.06364959,546.3043763408014,548.3335349358049,1 45189U 20012M   25318.41063463  .00012448  00000+0  85389-3 0  9992,2 45189  53.0563 204.1286 0001465  91.3380 268.7776 15.06364959314687
STARLINK-1234,45190,53.0518,0.0004178,15.37985606,449.2131145821131,454.9204328554324,1 45190U 20012N   25318.84881035  .00016774  00000+0  45165-3 0  9998,2 45190  53.0518 156.0649 0004178 134.7518 225.3825 15.37985606318079
STARLINK-1269,45197,53.0499,0.0003437,15.06371174,544.919634220526,549.6801795503188,1 45197U 20012V   25318.42170084  .00009038  00000+0  62532-3 0  9996,2 45197  53.0499 204.0818 0003437  78.9343 281.2032 15.06371174317433
STARLINK-1154,45198,53.052,6.57e-05,15.06346849,546.9194567849026,547.8294689911254,1 45198U 20012W   25318.34612209  .00055733  00000+0  37364-2 0  9995,2 45198  53.0520 184.4141 0000657  62.2795 297.8260 15.06346849317670
STARLINK-1199,45201,53.0542,0.0001195,15.06375682,546.4585020492268,548.1136781677633,1 45201U 20012Z   25318.35718200 -.00001814  00000+0 -10300-3 0  9994,2 45201  53.0542 184.3679 0001195  96.9483 263.1642 15.06375682317734
STARLINK-1209,45206,53.0533,0.0002775,15.31874627,468.31907175069045,472.1199096030159,1 45206U 20012AE  25318.83381093  .00015086  00000+0  49420-3 0  9997,2 45206  53.0533 157.3561 0002775 134.9352 225.1874 15.31874627317200
STARLINK-1210,45207,53.0226,0.0009483,15.60345543,380.2431189467952,393.073229474202,1 45207U 20012AF  25318.91670139  .00017809  00000+0  21888-3 0  9992,2 45207  53.0226 116.3247 0009483 110.4947 153.1813 15.60345543  5926
STARLINK-1231,45212,53.0517,0.0008045,15.13260142,520.7110882925308,531.8202722050519,1 45212U 20012AL  25318.84261869  .00016322  00000+0  92143-3 0  9997,2 45212  53.0517 179.8823 0008045  88.4783 271.7131 15.13260142317794
STARLINK-1271,45217,53.0522,0.0001297,15.06361093,546.4325716819267,548.2290380305067,1 45217U 20012AR  25318.34243981  .00003048  00000+0  22366-3 0  9993,2 45217  53.0522 184.4331 0001297  92.6432 267.4705 15.06361093317733
STARLINK-1191,45222,53.0566,0.0001701,15.06400917,546.030746155132,548.386748778421,1 45222U 20012AW  25318.61703368 -.00007282  00000+0 -47042-3 0  9993,2 45222  53.0566 163.2021 0001701  97.1690 262.9492 15.06400917318052
STARLINK-1212,45223,53.0526,0.0001507,15.06381798,546.2236865736513,548.3110034432375,1 45223U 20012AX  25318.83459326 -.00000363  00000+0 -54593-5 0  9994,2 45223  53.0526 162.8794 0001507  84.8150 275.3011 15.06381798318082
STARLINK-1215,45225,53.0522,0.0001175,15.06376391,546.470180110241,548.0976540257516,1 45225U 20012AZ  25318.85660527 -.00004520  00000+0 -28493-3 0  9992,2 45225  53.0522 162.1212 0001175 103.7202 256.3918 15.06376391318042
STARLINK-1221,45227,53.0668,0.0003682,15.37356385,451.41475817684477,456.4458925552444,1 45227U 20012BB  25318.75532422  .00018415  00000+0  50488-3 0  9990,2 45227  53.0668  92.3557 0003682  27.6532 332.4666 15.37356385319004
STARLINK-1222,45228,53.0525,0.0001514,15.06383581,546.2133748751094,548.3103856560538,1 45228U 20012BC  25318.55806372 -.00001716  00000+0 -96377-4 0  9993,2 45228  53.0525 163.4644 0001514  83.3663 276.7499 15.06383581317938
STARLINK-1226,45229,53.0532,0.0001453,15.06392171,546.2292961676931,548.2418094315371,1 45229U 20012BD  25318.85291609 -.00004453  00000+0 -28032-3 0  9991,2 45229  53.0532 162.1400 0001453  82.1647 277.9507 15.06392171317987
STARLINK-1227,45230,53.0505,0.0002177,15.06397985,545.7100839044369,548.7253833554605,1 45230U 20012BE  25318.58384343 -.00004007  00000+0 -25027-3 0  9997,2 45230  53.0505 163.3467 0002177  96.7178 263.4059 15.06397985318069
STARLINK-1246,45235,53.054,0.0001114,15.06385716,546.4838479806313,548.0268253932445,1 45235U 20012BK  25318.86400571  .00015571  00000+0  10623-2 0  9996,2 45235  53.0540 202.0906 0001114  85.9068 274.2048 15.06385716317550
STARLINK-1270,45237,53.0512,0.0001556,15.06387677,546.1717363035177,548.3269165282991,1 45237U 20012BM  25318.60229260 -.00001204  00000+0 -61961-4 0  9997,2 45237  53.0512 163.2658 0001556  83.6367 276.4799 15.06387677318051
STARLINK-1279,45360,53.0521,0.0006658,15.36632055,451.5269143088617,460.6273538498017,1 45360U 20019A   25318.83859714  .00030422  00000+0  84500-3 0  9994,2 45360  53.0521 286.7144 0006658  54.6029 305.5594 15.36632055312901
STARLINK-1301,45361,53.0511,0.0005714,15.39040542,445.04424484436913,452.84623442782595,1 45361U 20019B   25318.84331774  .00003814  00000+0  10727-3 0  9992,2 45361  53.0511 296.1635 0005714  46.2782 313.8694 15.39040542312782
STARLINK-1306,45362,53.044,0.0006276,15.74901269,340.6927609715158,349.13153226034774,1 45362U 20019C   25318.91670139  .00135576  00000+0  88648-3 0  9990,2 45362  53.0440 282.4145 0006276  16.2533 113.3222 15.74901269  5750
STARLINK-1262,45366,53.0563,0.0001233,15.06397514,546.3652807640601,548.073073597353,1 45366U 20019G   25318.31477727  .00024834  00000+0  16803-2 0  9993,2 45366  53.0563 324.5551 0001233 100.7932 259.3196 15.06397514312343
STARLINK-1273,45367,53.0543,0.0001665,15.06390142,546.0886958877845,548.3948470186779,1 45367U 20019H   25318.73497551  .00003542  00000+0  25660-3 0  9992,2 45367  53.0543 322.6691 0001665  85.3345 274.7834 15.06390142312408
STARLINK-1276,45368,53.0567,0.0001394,15.06365648,546.3514356056367,548.2822521373073,1 45368U 20019J   25318.70551140  .00009527  00000+0  65823-3 0  9999,2 45368  53.0567 322.8050 0001394  95.3691 264.7457 15.06365648312403
STARLINK-1277,45369,53.0553,0.0001417,15.06367107,546.3310359042343,548.2937082562821,1 45369U 20019K   25318.30012374 -.00004770  00000+0 -30179-3 0  9990,2 45369  53.0553 325.2505 0001417  92.9974 267.1177 15.06367107312334
STARLINK-1281,45370,53.055,0.0001258,15.06360444,546.4615699339947,548.2040181341736,1 45370U 20019L   25318.29636179  .00008538  00000+0  59201-3 0  9996,2 45370  53.0550 324.6416 0001258  82.2780 277.8352 15.06360444312348
STARLINK-1300,45374,53.0547,0.0001166,15.06353095,546.5478063336104,548.1628311423401,1 45374U 20019Q   25318.45118184  .00009731  00000+0  67208-3 0  9991,2 45374  53.0547 323.9433 0001166  81.9613 278.1508 15.06353095312361
STARLINK-1302,45375,53.0545,0.0001439,15.06360865,546.3349287558704,548.3280785912275,1 45375U 20019R   25318.39956338  .00005479  00000+0  38683-3 0  9996,2 45375  53.0545 324.1758 0001439  92.1010 268.0144 15.06360865312357
STARLINK-1304,45376,53.0556,0.0001367,15.06374785,546.3421336473966,548.2355450718778,1 45376U 20019S   25318.74973597 -.00000056  00000+0  15151-4 0  9995,2 45376  53.0556 322.6021 0001367  99.7489 260.3654 15.06374785312402
STARLINK-1305,45377,53.0543,0.0004019,15.33138663,463.70392819133303,469.20561105575507,1 45377U 20019T   25318.38647436  .00017886  00000+0  56093-3 0  9993,2 45377  53.0543 319.4172 0004019  44.0210 316.1110 15.33138663312424
